[{"OBJECT_NAME":"HONGHU 2","OBJECT_ID":"2023-193C","EPOCH":"2026-03-09T23:21:07.139520","MEAN_MOTION":15.21543878,"ECCENTRICITY":0.00399876,"INCLINATION":97.2779,"RA_OF_ASC_NODE":62.3901,"ARG_OF_PERICENTER":264.1736,"MEAN_ANOMALY":95.4941,"EPHEMERIS_TYPE":0,"CLASSIFICATION_TYPE":"U","NORAD_CAT_ID":58555,"ELEMENT_SET_NO":999,"REV_AT_EPOCH":8691,"BSTAR":0.0061775359,"MEAN_MOTION_DOT":0.00144707,"MEAN_MOTION_DDOT":0},{"OBJECT_NAME":"STARLINK-32205","OBJECT_ID":"2024-131M","EPOCH":"2026-03-09T22:28:52.928544","MEAN_MOTION":15.30185056,"ECCENTRICITY":0.0001352,"INCLINATION":53.1612,"RA_OF_ASC_NODE":51.4919,"ARG_OF_PERICENTER":92.8209,"MEAN_ANOMALY":267.2946,"EPHEMERIS_TYPE":0,"CLASSIFICATION_TYPE":"U","NORAD_CAT_ID":60266,"ELEMENT_SET_NO":999,"REV_AT_EPOCH":9175,"BSTAR":8.460043e-6,"MEAN_MOTION_DOT":-1.09e-6,"MEAN_MOTION_DDOT":0}]
